{
    "links": {
        "self": "http://www.neowsapp.com/rest/v1/neo/54049759?api_key=iIulBulltgU6a56xZRHN4H3l9WmuAYTsLGpBGhQ2"
    },
    "id": "54049759",
    "neo_reference_id": "54049759",
    "name": "(2020 OR3)",
    "designation": "2020 OR3",
    "nasa_jpl_url": "http://ssd.jpl.nasa.gov/sbdb.cgi?sstr=54049759",
    "absolute_magnitude_h": 23.341,
    "estimated_diameter": {
        "kilometers": {
            "estimated_diameter_min": 0.0570630494,
            "estimated_diameter_max": 0.1275968576
        },
        "meters": {
            "estimated_diameter_min": 57.0630494452,
            "estimated_diameter_max": 127.5968575629
        },
        "miles": {
            "estimated_diameter_min": 0.0354573241,
            "estimated_diameter_max": 0.079284987
        },
        "feet": {
            "estimated_diameter_min": 187.2147351418,
            "estimated_diameter_max": 418.6248741667
        }
    },
    "is_potentially_hazardous_asteroid": false,
    "close_approach_data": [
        {
            "close_approach_date": "2020-07-15",
            "close_approach_date_full": "2020-Jul-15 14:08",
            "epoch_date_close_approach": 1594822080000,
            "relative_velocity": {
                "kilometers_per_second": "9.5910673262",
                "kilometers_per_hour": "34527.8423741642",
                "miles_per_hour": "21454.2585018799"
            },
            "miss_distance": {
                "astronomical": "0.1558516656",
                "lunar": "60.6262979184",
                "kilometers": "23315077.209712272",
                "miles": "14487317.1922904736"
            },
            "orbiting_body": "Earth"
        }
    ],
    "orbital_data": {
        "orbit_id": "1",
        "orbit_determination_date": "2020-07-26 06:44:18",
        "first_observation_date": "2020-07-21",
        "last_observation_date": "2020-07-25",
        "data_arc_in_days": 4,
        "observations_used": 12,
        "orbit_uncertainty": "9",
        "minimum_orbit_intersection": ".098402",
        "jupiter_tisserand_invariant": "4.281",
        "epoch_osculation": "2459053.5",
        "eccentricity": ".307590587165024",
        "semi_major_axis": "1.59657034636674",
        "inclination": "14.23390652307861",
        "ascending_node_longitude": "293.6020861768722",
        "orbital_period": "736.85242128158",
        "perihelion_distance": "1.105480336077529",
        "perihelion_argument": "341.7598936292694",
        "aphelion_distance": "2.087660356655952",
        "perihelion_time": "2459034.502508737259",
        "mean_anomaly": "9.281501501605673",
        "mean_motion": ".4885645885153847",
        "equinox": "J2000",
        "orbit_class": {
            "orbit_class_type": "AMO",
            "orbit_class_description": "Near-Earth asteroid orbits similar to that of 1221 Amor",
            "orbit_class_range": "1.017 AU < q (perihelion) < 1.3 AU"
        }
    },
    "is_sentry_object": false
}